EUTELSAT HOTBIRD 13C    
1 33459U 08065A   26201.75092039 -.00000285  00000+0  00000+0 0  9993
2 33459   3.0345  78.7942 0003610  41.0786  38.6348  1.00269293 47683
EXPRESS-AM44            
1 33595U 09007A   26201.83002100 -.00000092  00000+0  00000+0 0  9996
2 33595   3.5482  77.9869 0003803  31.9771 116.4111  1.00271564 52623
NSS-9                   
1 33749U 09008A   26201.79717419  .00000070  00000+0  00000+0 0  9994
2 33749   1.3465  82.3293 0002329  22.9905 303.2914  1.00270590 63855
TELSTAR 11N             
1 34111U 09009A   26201.83794926 -.00000251  00000+0  00000+0 0  9994
2 34111   0.0124  32.6370 0002428  77.5895  92.4855  1.00271956 46584
WGS F2 (USA 204)        
1 34713U 09017A   26201.85044767  .00000068  00000+0  00000+0 0  9999
2 34713   0.0151  68.7261 0000261  71.1998 162.3483  1.00272668 45953
SES-7 (PROTOSTAR 2)     
1 34941U 09027A   26201.85363098 -.00000345  00000+0  00000+0 0  9993
2 34941   0.0084   9.2070 0001279 183.6044 161.3514  1.00270956 62962
MEASAT-3A               
1 35362U 09032A   26201.86385770 -.00000111  00000+0  00000+0 0  9990
2 35362   0.0227 356.0940 0002879 112.7199 300.7999  1.00272420  8367
EWS-G3 (GOES 14)        
1 35491U 09033A   26201.92752701 -.00000360  00000+0  00000+0 0  9999
2 35491   1.7746  82.6256 0002156  39.0794 272.3629  1.00095663  6922
FM-5                    
1 35493U 09034A   26201.88639112 -.00000200  00000+0  00000+0 0  9990
2 35493   0.0434 255.1191 0000964 122.7104 153.7531  1.00271876 46981
TERRESTAR-1             
1 35496U 09035A   26201.59638534 -.00000060  00000+0  00000+0 0  9993
2 35496   5.2006  48.7621 0002506  63.9408 289.3700  1.00270304 62467
ASIASAT 5               
1 35696U 09042A   26201.92336699 -.00000308  00000+0  00000+0 0  9992
2 35696   0.0110  36.9733 0001448  58.1365 276.5269  1.00273487 62040
JCSAT-12 (JCSAT-RA)     
1 35755U 09044A   26201.93517113 -.00000328  00000+0  00000+0 0  9995
2 35755   0.0431 264.3382 0001078 280.1346 222.9293  1.00270114 61948
OPTUS D3                
1 35756U 09044B   26201.86307770 -.00000145  00000+0  00000+0 0  9991
2 35756   0.8968 268.1886 0003359 211.1078 286.1711  1.00271716 61905
NIMIQ 5                 
1 35873U 09050A   26201.88907780 -.00000257  00000+0  00000+0 0  9991
2 35873   0.0248 281.4239 0002900 190.0955  74.5037  1.00272066 61682
AMAZONAS 2              
1 35942U 09054A   26201.88925113 -.00000261  00000+0  00000+0 0  9997
2 35942   1.9006  82.6195 0003401  31.9943  72.1793  1.00272764 61521
COMSATBW-1              
1 35943U 09054B   26201.91591362  .00000025  00000+0  00000+0 0  9994
2 35943   0.0652 155.7765 0002889 323.6387 211.9957  1.00271914 61640
NSS-12                  
1 36032U 09058A   26201.91478696  .00000071  00000+0  00000+0 0  9993
2 36032   0.0777 269.2822 0004913 173.3771 242.3356  1.00273190 61256
THOR 6                  
1 36033U 09058B   26201.83201433 -.00000010  00000+0  00000+0 0  9992
2 36033   0.0142 111.8544 0001829  11.5448 113.8757  1.00272636 61344
INTELSAT 14 (IS-14)     
1 36097U 09064A   26201.84350374 -.00000274  00000+0  00000+0 0  9991
2 36097   0.0179  49.4627 0002552  72.8186  74.9853  1.00271917 60945
EUTELSAT 36B            
1 36101U 09065A   26201.91348694  .00000112  00000+0  00000+0 0  9998
2 36101   0.5738  81.3671 0005701  34.7203 201.9279  1.00271560 61047
INTELSAT 15 (IS-15)     
1 36106U 09067A   26201.77776076 -.00000186  00000+0  00000+0 0  9990
2 36106   0.0176  52.8679 0002294  65.1597 185.6596  1.00272390 41569
WGS F3 (USA 211)        
1 36108U 09068A   26201.66387273  .00000063  00000+0  00000+0 0  9991
2 36108   0.2943  85.6799 0000649  62.9386 258.8028  1.00272726 46926
DIRECTV 12              
1 36131U 09075A   26201.88309778 -.00000103  00000+0  00000+0 0  9999
2 36131   0.0300 198.3127 0000246  13.1716 302.3558  1.00272153 46895
BEIDOU-2 G1             
1 36287U 10001A   26201.93125369 -.00000283  00000+0  00000+0 0  9999
2 36287   4.3711  60.2956 0001830 294.9924  59.1117  1.00270367 60504
SDO                     
1 36395U 10005A   26200.24111708 -.00000094  00000+0  00000+0 0  9998
2 36395  34.7163  85.8540 0001721  43.5863 152.2121  1.00277469 60389
INTELSAT 16 (IS-16)     
1 36397U 10006A   26201.88838447 -.00000245  00000+0  00000+0 0  9996
2 36397   0.0190 317.3673 0002663 181.1042  43.7883  1.00270852 59994
EWS-G2 (GOES 15)        
1 36411U 10008A   26201.91600029  .00000022  00000+0  00000+0 0  9994
2 36411   1.3686  82.3995 0005449  53.6341 195.6588  1.00269471 59973
ECHOSTAR 14             
1 36499U 10010A   26201.73731367  .00000000  00000+0  00000+0 0  9999
2 36499   0.0105  19.7404 0002068  84.0342 341.2542  1.00273040 46885
SES-1                   
1 36516U 10016A   26201.66959275 -.00000115  00000+0  00000+0 0  9995
2 36516   0.0511 271.3857 0002613 201.5439 325.5601  1.00272130 59360
ASTRA 3B                
1 36581U 10021A   26201.83678102  .00000136  00000+0  00000+0 0  9991
2 36581   1.5533  83.1369 0004258  27.0855 153.1167  1.00272738 59208
COMSATBW-2              
1 36582U 10021B   26201.83478767  .00000088  00000+0  00000+0 0  9993
2 36582   0.0408 155.7186 0002347 331.2941 125.3125  1.00269695 59292
BEIDOU-2 G3             
1 36590U 10024A   26201.70533353 -.00000138  00000+0  00000+0 0  9991
2 36590   4.5935  61.3612 0007258 358.9695 211.6234  1.00273870 59109
