OBJECT_NAME,OBJECT_ID,EPOCH,MEAN_MOTION,ECCENTRICITY,INCLINATION,RA_OF_ASC_NODE,ARG_OF_PERICENTER,MEAN_ANOMALY,EPHEMERIS_TYPE,CLASSIFICATION_TYPE,NORAD_CAT_ID,ELEMENT_SET_NO,REV_AT_EPOCH,BSTAR,MEAN_MOTION_DOT,MEAN_MOTION_DDOT
EUTELSAT HOTBIRD 13C,2008-065A,2026-07-20T18:01:19.521696,1.00269293,.000361,3.0345,78.7942,41.0786,38.6348,0,U,33459,999,4768,0,-.285E-5,0
EXPRESS-AM44,2009-007A,2026-07-20T19:55:13.814400,1.00271564,.00038036,3.5482,77.9869,31.9771,116.4111,0,U,33595,999,5262,0,-.92E-6,0
NSS-9,2009-008A,2026-07-20T19:07:55.850016,1.00270590,.00023294,1.3465,82.3293,22.9905,303.2914,0,U,33749,999,6385,0,.7E-6,0
TELSTAR 11N,2009-009A,2026-07-20T20:06:38.816064,1.00271956,.00024281,0.0124,32.6370,77.5895,92.4855,0,U,34111,999,4658,0,-.251E-5,0
WGS F2 (USA 204),2009-017A,2026-07-20T20:24:38.678688,1.00272668,.00002617,0.0151,68.7261,71.1998,162.3483,0,U,34713,999,4595,0,.68E-6,0
SES-7 (PROTOSTAR 2),2009-027A,2026-07-20T20:29:13.716672,1.00270956,.00012798,0.0084,9.2070,183.6044,161.3514,0,U,34941,999,6296,0,-.345E-5,0
MEASAT-3A,2009-032A,2026-07-20T20:43:57.305280,1.00272420,.00028796,0.0227,356.0940,112.7199,300.7999,0,U,35362,999,836,0,-.111E-5,0
EWS-G3 (GOES 14),2009-033A,2026-07-20T22:15:38.333664,1.00095663,.00021564,1.7746,82.6256,39.0794,272.3629,0,U,35491,999,692,0,-.36E-5,0
FM-5,2009-034A,2026-07-20T21:16:24.192768,1.00271876,.00009644,0.0434,255.1191,122.7104,153.7531,0,U,35493,999,4698,0,-.2E-5,0
TERRESTAR-1,2009-035A,2026-07-20T14:18:47.693376,1.00270304,.00025066,5.2006,48.7621,63.9408,289.3700,0,U,35496,999,6246,0,-.6E-6,0
ASIASAT 5,2009-042A,2026-07-20T22:09:38.907936,1.00273487,.00014485,0.0110,36.9733,58.1365,276.5269,0,U,35696,999,6204,0,-.308E-5,0
JCSAT-12 (JCSAT-RA),2009-044A,2026-07-20T22:26:38.785632,1.00270114,.0001078,0.0431,264.3382,280.1346,222.9293,0,U,35755,999,6194,0,-.328E-5,0
OPTUS D3,2009-044B,2026-07-20T20:42:49.913280,1.00271716,.0003359,0.8968,268.1886,211.1078,286.1711,0,U,35756,999,6190,0,-.145E-5,0
NIMIQ 5,2009-050A,2026-07-20T21:20:16.321920,1.00272066,.00029003,0.0248,281.4239,190.0955,74.5037,0,U,35873,999,6168,0,-.257E-5,0
AMAZONAS 2,2009-054A,2026-07-20T21:20:31.297632,1.00272764,.00034017,1.9006,82.6195,31.9943,72.1793,0,U,35942,999,6152,0,-.261E-5,0
COMSATBW-1,2009-054B,2026-07-20T21:58:54.936768,1.00271914,.00028897,0.0652,155.7765,323.6387,211.9957,0,U,35943,999,6164,0,.25E-6,0
NSS-12,2009-058A,2026-07-20T21:57:17.593344,1.00273190,.00049138,0.0777,269.2822,173.3771,242.3356,0,U,36032,999,6125,0,.71E-6,0
THOR 6,2009-058B,2026-07-20T19:58:06.038112,1.00272636,.00018296,0.0142,111.8544,11.5448,113.8757,0,U,36033,999,6134,0,-.1E-6,0
INTELSAT 14 (IS-14),2009-064A,2026-07-20T20:14:38.723136,1.00271917,.00025528,0.0179,49.4627,72.8186,74.9853,0,U,36097,999,6094,0,-.274E-5,0
EUTELSAT 36B,2009-065A,2026-07-20T21:55:25.271616,1.00271560,.00057016,0.5738,81.3671,34.7203,201.9279,0,U,36101,999,6104,0,.112E-5,0
INTELSAT 15 (IS-15),2009-067A,2026-07-20T18:39:58.529664,1.00272390,.0002294,0.0176,52.8679,65.1597,185.6596,0,U,36106,999,4156,0,-.186E-5,0
WGS F3 (USA 211),2009-068A,2026-07-20T15:55:58.603872,1.00272726,.00006493,0.2943,85.6799,62.9386,258.8028,0,U,36108,999,4692,0,.63E-6,0
DIRECTV 12,2009-075A,2026-07-20T21:11:39.648192,1.00272153,.00002467,0.0300,198.3127,13.1716,302.3558,0,U,36131,999,4689,0,-.103E-5,0
BEIDOU-2 G1,2010-001A,2026-07-20T22:21:00.318816,1.00270367,.00018302,4.3711,60.2956,294.9924,59.1117,0,U,36287,999,6050,0,-.283E-5,0
SDO,2010-005A,2026-07-19T05:47:12.515712,1.00277469,.00017212,34.7163,85.8540,43.5863,152.2121,0,U,36395,999,6038,0,-.94E-6,0
INTELSAT 16 (IS-16),2010-006A,2026-07-20T21:19:16.418208,1.00270852,.00026638,0.0190,317.3673,181.1042,43.7883,0,U,36397,999,5999,0,-.245E-5,0
EWS-G2 (GOES 15),2010-008A,2026-07-20T21:59:02.425056,1.00269471,.00054495,1.3686,82.3995,53.6341,195.6588,0,U,36411,999,5997,0,.22E-6,0
ECHOSTAR 14,2010-010A,2026-07-20T17:41:43.901088,1.00273040,.00020682,0.0105,19.7404,84.0342,341.2542,0,U,36499,999,4688,0,0,0
SES-1,2010-016A,2026-07-20T16:04:12.813600,1.00272130,.00026138,0.0511,271.3857,201.5439,325.5601,0,U,36516,999,5936,0,-.115E-5,0
ASTRA 3B,2010-021A,2026-07-20T20:04:57.880128,1.00272738,.00042583,1.5533,83.1369,27.0855,153.1167,0,U,36581,999,5920,0,.136E-5,0
COMSATBW-2,2010-021B,2026-07-20T20:02:05.654688,1.00269695,.00023472,0.0408,155.7186,331.2941,125.3125,0,U,36582,999,5929,0,.88E-6,0
BEIDOU-2 G3,2010-024A,2026-07-20T16:55:40.816992,1.00273870,.00072589,4.5935,61.3612,358.9695,211.6234,0,U,36590,999,5910,0,-.138E-5,0
